{
  "edges": [
    {
      "from_node": "1",
      "to_node": "2",
      "distance": 90.9,
      "capacity": "1100",
      "maxspeed": "130"
    },
    {
      "from_node": "2",
      "to_node": "1",
      "distance": 90.9,
      "capacity": "1100",
      "maxspeed": "130"
    },
    {
      "from_node": "2",
      "to_node": "3",
      "distance": 36.4,
      "capacity": "1100",
      "maxspeed": "110"
    },
    {
      "from_node": "3",
      "to_node": "2",
      "distance": 36.4,
      "capacity": "1100",
      "maxspeed": "110"
    },
    {
      "from_node": "2",
      "to_node": "13",
      "distance": 24.2,
      "capacity": "1100",
      "maxspeed": "130"
    },
    {
      "from_node": "13",
      "to_node": "2",
      "distance": 24.2,
      "capacity": "1100",
      "maxspeed": "130"
    },
    {
      "from_node": "13",
      "to_node": "3",
      "distance": 44.5,
      "capacity": "1100",
      "maxspeed": "130"
    },
    {
      "from_node": "3",
      "to_node": "13",
      "distance": 44.5,
      "capacity": "1100",
      "maxspeed": "130"
    },
    {
      "from_node": "3",
      "to_node": "4",
      "distance": 19,
      "capacity": "1500",
      "maxspeed": "110"
    },
    {
      "from_node": "4",
      "to_node": "3",
      "distance": 19,
      "capacity": "1500",
      "maxspeed": "110"
    },
    {
      "from_node": "4",
      "to_node": "5",
      "distance": 84.2,
      "capacity": "1100",
      "maxspeed": "100"
    },
    {
      "from_node": "5",
      "to_node": "4",
      "distance": 84.2,
      "capacity": "1100",
      "maxspeed": "100"
    },
    {
      "from_node": "4",
      "to_node": "6",
      "distance": 20.4,
      "capacity": "1100",
      "maxspeed": "110"
    },
    {
      "from_node": "6",
      "to_node": "4",
      "distance": 20.4,
      "capacity": "1100",
      "maxspeed": "110"
    },
    {
      "from_node": "6",
      "to_node": "8",
      "distance": 11,
      "capacity": "1100",
      "maxspeed": "110"
    },
    {
      "from_node": "8",
      "to_node": "6",
      "distance": 11,
      "capacity": "1100",
      "maxspeed": "110"
    },
    {
      "from_node": "6",
      "to_node": "7",
      "distance": 23.6,
      "capacity": "1100",
      "maxspeed": "130"
    },
    {
      "from_node": "7",
      "to_node": "6",
      "distance": 23.6,
      "capacity": "1100",
      "maxspeed": "130"
    },
    {
      "from_node": "8",
      "to_node": "15",
      "distance": 35.3,
      "capacity": "1100",
      "maxspeed": "130"
    },
    {
      "from_node": "15",
      "to_node": "8",
      "distance": 35.3,
      "capacity": "1100",
      "maxspeed": "130"
    },
    {
      "from_node": "8",
      "to_node": "14",
      "distance": 45.9,
      "capacity": "1100",
      "maxspeed": "130"
    },
    {
      "from_node": "15",
      "to_node": "9",
      "distance": 20.6,
      "capacity": "1100",
      "maxspeed": "130"
    },
    {
      "from_node": "15",
      "to_node": "14",
      "distance": 53.9,
      "capacity": "1100",
      "maxspeed": "130"
    },
    {
      "from_node": "9",
      "to_node": "10",
      "distance": 23.6,
      "capacity": "1100",
      "maxspeed": "130"
    },
    {
      "from_node": "9",
      "to_node": "11",
      "distance": 68.3,
      "capacity": "1100",
      "maxspeed": "130"
    },
    {
      "from_node": "11",
      "to_node": "12",
      "distance": 122,
      "capacity": "1100",
      "maxspeed": "130"
    },
    {
      "from_node": "11",
      "to_node": "20",
      "distance": 31.7,
      "capacity": "1100",
      "maxspeed": "130"
    },
    {
      "from_node": "20",
      "to_node": "19",
      "distance": 49.8,
      "capacity": "1100",
      "maxspeed": "130"
    },
    {
      "from_node": "19",
      "to_node": "18",
      "distance": 21.5,
      "capacity": "1100",
      "maxspeed": "130"
    },
    {
      "from_node": "18",
      "to_node": "14",
      "distance": 26.4,
      "capacity": "1100",
      "maxspeed": "130"
    },
    {
      "from_node": "18",
      "to_node": "17",
      "distance": 36.8,
      "capacity": "1100",
      "maxspeed": "130"
    },
    {
      "from_node": "17",
      "to_node": "13",
      "distance": 30.6,
      "capacity": "1100",
      "maxspeed": "130"
    },
    {
      "from_node": "13",
      "to_node": "16",
      "distance": 28.5,
      "capacity": "1100",
      "maxspeed": "130"
    },
    {
      "from_node": "17",
      "to_node": "16",
      "distance": 24.5,
      "capacity": "1100",
      "maxspeed": "130"
    },
    {
      "from_node": "16",
      "to_node": "22",
      "distance": 57.6,
      "capacity": "1100",
      "maxspeed": "130"
    },
    {
      "from_node": "22",
      "to_node": "21",
      "distance": 66.8,
      "capacity": "1100",
      "maxspeed": "130"
    },
    {
      "from_node": "16",
      "to_node": "25-c",
      "distance": 53.2,
      "capacity": "1100",
      "maxspeed": "130"
    },
    {
      "from_node": "22",
      "to_node": "24",
      "distance": 43.6,
      "capacity": "1100",
      "maxspeed": "130"
    },
    {
      "from_node": "24",
      "to_node": "23",
      "distance": 37.6,
      "capacity": "1100",
      "maxspeed": "130"
    },
    {
      "from_node": "24",
      "to_node": "25",
      "distance": 5,
      "capacity": "1100",
      "maxspeed": "130"
    },
    {
      "from_node": "25",
      "to_node": "25-b",
      "distance": 3.2,
      "capacity": "1500",
      "maxspeed": "80"
    },
    {
      "from_node": "25",
      "to_node": "25-c",
      "distance": 8.4,
      "capacity": "1500",
      "maxspeed": "90"
    },
    {
      "from_node": "25-b",
      "to_node": "25-d",
      "distance": 2.1,
      "capacity": "1500",
      "maxspeed": "110"
    },
    {
      "from_node": "25-d",
      "to_node": "26",
      "distance": 18.5,
      "capacity": "1500",
      "maxspeed": "90"
    },
    {
      "from_node": "26",
      "to_node": "27",
      "distance": 59.3,
      "capacity": "1100",
      "maxspeed": "130"
    },
    {
      "from_node": "27",
      "to_node": "18",
      "distance": 22.4,
      "capacity": "1100",
      "maxspeed": "130"
    },
    {
      "from_node": "27",
      "to_node": "28",
      "distance": 9.4,
      "capacity": "1100",
      "maxspeed": "130"
    },
    {
      "from_node": "28",
      "to_node": "19",
      "distance": 16.7,
      "capacity": "1100",
      "maxspeed": "130"
    },
    {
      "from_node": "28",
      "to_node": "29",
      "distance": 60.8,
      "capacity": "1100",
      "maxspeed": "130"
    },
    {
      "from_node": "29",
      "to_node": "20",
      "distance": 14.2,
      "capacity": "1100",
      "maxspeed": "130"
    },
    {
      "from_node": "25-b",
      "to_node": "30",
      "distance": 17.1,
      "capacity": "1100",
      "maxspeed": "130"
    },
    {
      "from_node": "30",
      "to_node": "31",
      "distance": 15.5,
      "capacity": "1100",
      "maxspeed": "130"
    },
    {
      "from_node": "31",
      "to_node": "26",
      "distance": 16,
      "capacity": "1100",
      "maxspeed": "130"
    },
    {
      "from_node": "30",
      "to_node": "32",
      "distance": 9.5,
      "capacity": "1100",
      "maxspeed": "130"
    },
    {
      "from_node": "32",
      "to_node": "33",
      "distance": 9.7,
      "capacity": "1100",
      "maxspeed": "130"
    },
    {
      "from_node": "33",
      "to_node": "34",
      "distance": 22,
      "capacity": "1100",
      "maxspeed": "130"
    },
    {
      "from_node": "31",
      "to_node": "34",
      "distance": 12.2,
      "capacity": "1100",
      "maxspeed": "130"
    },
    {
      "from_node": "34",
      "to_node": "35",
      "distance": 47,
      "capacity": "1100",
      "maxspeed": "130"
    },
    {
      "from_node": "35",
      "to_node": "27",
      "distance": 77.2,
      "capacity": "1100",
      "maxspeed": "130"
    },
    {
      "from_node": "35",
      "to_node": "37",
      "distance": 16.6,
      "capacity": "1100",
      "maxspeed": "130"
    },
    {
      "from_node": "35",
      "to_node": "36",
      "distance": 15.7,
      "capacity": "1100",
      "maxspeed": "130"
    },
    {
      "from_node": "36",
      "to_node": "37",
      "distance": 11.6,
      "capacity": "1100",
      "maxspeed": "130"
    },
    {
      "from_node": "32",
      "to_node": "39",
      "distance": 24.8,
      "capacity": "1100",
      "maxspeed": "130"
    },
    {
      "from_node": "39",
      "to_node": "40",
      "distance": 43.5,
      "capacity": "1100",
      "maxspeed": "130"
    },
    {
      "from_node": "40",
      "to_node": "33",
      "distance": 54.8,
      "capacity": "1100",
      "maxspeed": "130"
    },
    {
      "from_node": "40",
      "to_node": "41",
      "distance": 11.2,
      "capacity": "1100",
      "maxspeed": "130"
    },
    {
      "from_node": "41",
      "to_node": "42",
      "distance": 42.4,
      "capacity": "1100",
      "maxspeed": "130"
    },
    {
      "from_node": "42",
      "to_node": "36",
      "distance": 14.2,
      "capacity": "1100",
      "maxspeed": "130"
    },
    {
      "from_node": "37",
      "to_node": "43",
      "distance": 28.3,
      "capacity": "1100",
      "maxspeed": "130"
    },
    {
      "from_node": "38",
      "to_node": "43",
      "distance": 111,
      "capacity": "1100",
      "maxspeed": "130"
    },
    {
      "from_node": "29",
      "to_node": "38",
      "distance": 108,
      "capacity": "1100",
      "maxspeed": "130"
    },
    {
      "from_node": "48",
      "to_node": "38",
      "distance": 44.7,
      "capacity": "1100",
      "maxspeed": "130"
    },
    {
      "from_node": "47",
      "to_node": "43",
      "distance": 59.7,
      "capacity": "1100",
      "maxspeed": "130"
    },
    {
      "from_node": "46",
      "to_node": "47",
      "distance": 63.9,
      "capacity": "1100",
      "maxspeed": "130"
    },
    {
      "from_node": "45",
      "to_node": "46",
      "distance": 27.9,
      "capacity": "1100",
      "maxspeed": "130"
    },
    {
      "from_node": "44",
      "to_node": "45",
      "distance": 90.9,
      "capacity": "1100",
      "maxspeed": "130"
    },
    {
      "from_node": "41",
      "to_node": "45",
      "distance": 55,
      "capacity": "1100",
      "maxspeed": "130"
    },
    {
      "from_node": "57",
      "to_node": "45",
      "distance": 51.2,
      "capacity": "1100",
      "maxspeed": "130"
    },
    {
      "from_node": "50",
      "to_node": "48",
      "distance": 19.7,
      "capacity": "1100",
      "maxspeed": "130"
    },
    {
      "from_node": "49",
      "to_node": "48",
      "distance": 13.6,
      "capacity": "1100",
      "maxspeed": "130"
    },
    {
      "from_node": "51",
      "to_node": "49",
      "distance": 19.6,
      "capacity": "1100",
      "maxspeed": "130"
    },
    {
      "from_node": "50",
      "to_node": "49",
      "distance": 16,
      "capacity": "1100",
      "maxspeed": "130"
    },
    {
      "from_node": "52",
      "to_node": "50",
      "distance": 63.7,
      "capacity": "1100",
      "maxspeed": "130"
    },
    {
      "from_node": "53",
      "to_node": "52",
      "distance": 14.7,
      "capacity": "1100",
      "maxspeed": "130"
    },
    {
      "from_node": "54",
      "to_node": "53",
      "distance": 57.5,
      "capacity": "1100",
      "maxspeed": "90"
    },
    {
      "from_node": "55",
      "to_node": "53",
      "distance": 62.9,
      "capacity": "1100",
      "maxspeed": "130"
    },
    {
      "from_node": "56",
      "to_node": "52",
      "distance": 88.6,
      "capacity": "1100",
      "maxspeed": "130"
    },
    {
      "from_node": "47",
      "to_node": "56",
      "distance": 26.5,
      "capacity": "1100",
      "maxspeed": "130"
    },
    {
      "from_node": "64",
      "to_node": "56",
      "distance": 17.7,
      "capacity": "1100",
      "maxspeed": "130"
    },
    {
      "from_node": "65",
      "to_node": "64",
      "distance": 42,
      "capacity": "1100",
      "maxspeed": "130"
    },
    {
      "from_node": "63",
      "to_node": "64",
      "distance": 46,
      "capacity": "1100",
      "maxspeed": "130"
    },
    {
      "from_node": "69",
      "to_node": "63",
      "distance": 64.4,
      "capacity": "1100",
      "maxspeed": "90"
    },
    {
      "from_node": "62",
      "to_node": "63",
      "distance": 30,
      "capacity": "1100",
      "maxspeed": "130"
    },
    {
      "from_node": "61",
      "to_node": "62",
      "distance": 21.4,
      "capacity": "1100",
      "maxspeed": "130"
    },
    {
      "from_node": "57",
      "to_node": "61",
      "distance": 62.1,
      "capacity": "1100",
      "maxspeed": "130"
    },
    {
      "from_node": "60",
      "to_node": "57",
      "distance": 37.5,
      "capacity": "1100",
      "maxspeed": "130"
    },
    {
      "from_node": "59",
      "to_node": "57",
      "distance": 112,
      "capacity": "1100",
      "maxspeed": "130"
    },
    {
      "from_node": "62",
      "to_node": "60",
      "distance": 47.4,
      "capacity": "1100",
      "maxspeed": "130"
    },
    {
      "from_node": "70",
      "to_node": "60",
      "distance": 10,
      "capacity": "1100",
      "maxspeed": "130"
    },
    {
      "from_node": "72",
      "to_node": "70",
      "distance": 32.5,
      "capacity": "1100",
      "maxspeed": "130"
    },
    {
      "from_node": "71",
      "to_node": "72",
      "distance": 4.7,
      "capacity": "1100",
      "maxspeed": "130"
    },
    {
      "from_node": "75",
      "to_node": "72",
      "distance": 44.6,
      "capacity": "1100",
      "maxspeed": "130"
    },
    {
      "from_node": "70",
      "to_node": "71",
      "distance": 27.8,
      "capacity": "1100",
      "maxspeed": "130"
    },
    {
      "from_node": "71",
      "to_node": "59",
      "distance": 21.6,
      "capacity": "1100",
      "maxspeed": "130"
    },
    {
      "from_node": "73",
      "to_node": "59",
      "distance": 15.2,
      "capacity": "1100",
      "maxspeed": "130"
    },
    {
      "from_node": "58",
      "to_node": "73",
      "distance": 41.3,
      "capacity": "1100",
      "maxspeed": "130"
    },
    {
      "from_node": "73",
      "to_node": "74",
      "distance": 26.5,
      "capacity": "1100",
      "maxspeed": "130"
    },
    {
      "from_node": "74",
      "to_node": "75",
      "distance": 28.2,
      "capacity": "1100",
      "maxspeed": "130"
    },
    {
      "from_node": "75",
      "to_node": "77",
      "distance": 37.7,
      "capacity": "1100",
      "maxspeed": "130"
    },
    {
      "from_node": "77",
      "to_node": "76",
      "distance": 24.5,
      "capacity": "1100",
      "maxspeed": "130"
    },
    {
      "from_node": "77",
      "to_node": "78",
      "distance": 11.3,
      "capacity": "1100",
      "maxspeed": "130"
    },
    {
      "from_node": "78",
      "to_node": "79",
      "distance": 17.6,
      "capacity": "1100",
      "maxspeed": "130"
    },
    {
      "from_node": "78",
      "to_node": "80",
      "distance": 58.7,
      "capacity": "1100",
      "maxspeed": "130"
    },
    {
      "from_node": "65",
      "to_node": "68",
      "distance": 29,
      "capacity": "1100",
      "maxspeed": "130"
    },
    {
      "from_node": "66",
      "to_node": "65",
      "distance": 113,
      "capacity": "1100",
      "maxspeed": "130"
    },
    {
      "from_node": "67",
      "to_node": "66",
      "distance": 57.3,
      "capacity": "1100",
      "maxspeed": "130"
    },
    {
      "from_node": "chf",
      "to_node": "1",
      "distance": 0,
      "capacity": "1100",
      "maxspeed": "130"
    },
    {
      "from_node": "1",
      "to_node": "chf",
      "distance": 0,
      "capacity": "1100",
      "maxspeed": "130"
    },
    {
      "from_node": "fr1",
      "to_node": "5",
      "distance": 0,
      "capacity": "1100",
      "maxspeed": "130"
    },
    {
      "from_node": "5",
      "to_node": "fr1",
      "distance": 0,
      "capacity": "1100",
      "maxspeed": "130"
    },
    {
      "from_node": "fr2",
      "to_node": "12",
      "distance": 0,
      "capacity": "1100",
      "maxspeed": "130"
    },
    {
      "from_node": "12",
      "to_node": "fr2",
      "distance": 0,
      "capacity": "1100",
      "maxspeed": "130"
    },
    {
      "from_node": "ch1",
      "to_node": "21",
      "distance": 0,
      "capacity": "1100",
      "maxspeed": "130"
    },
    {
      "from_node": "21",
      "to_node": "ch1",
      "distance": 0,
      "capacity": "1100",
      "maxspeed": "130"
    },
    {
      "from_node": "ch2",
      "to_node": "23",
      "distance": 0,
      "capacity": "1100",
      "maxspeed": "130"
    },
    {
      "from_node": "23",
      "to_node": "ch2",
      "distance": 0,
      "capacity": "1100",
      "maxspeed": "130"
    },
    {
      "from_node": "au",
      "to_node": "44",
      "distance": 0,
      "capacity": "1100",
      "maxspeed": "130"
    },
    {
      "from_node": "44",
      "to_node": "au",
      "distance": 0,
      "capacity": "1100",
      "maxspeed": "130"
    },
    {
      "from_node": "au2",
      "to_node": "58",
      "distance": 0,
      "capacity": "1100",
      "maxspeed": "130"
    },
    {
      "from_node": "58",
      "to_node": "au2",
      "distance": 0,
      "capacity": "1100",
      "maxspeed": "130"
    },
    {
      "from_node": "au3",
      "to_node": "76",
      "distance": 0,
      "capacity": "1100",
      "maxspeed": "130"
    },
    {
      "from_node": "76",
      "to_node": "au3",
      "distance": 0,
      "capacity": "1100",
      "maxspeed": "130"
    },
    {
      "from_node": "slo1",
      "to_node": "79",
      "distance": 0,
      "capacity": "1100",
      "maxspeed": "130"
    },
    {
      "from_node": "79",
      "to_node": "slo1",
      "distance": 0,
      "capacity": "1100",
      "maxspeed": "130"
    },
    {
      "from_node": "slo2",
      "to_node": "80",
      "distance": 0,
      "capacity": "1100",
      "maxspeed": "130"
    },
    {
      "from_node": "80",
      "to_node": "slo2",
      "distance": 0,
      "capacity": "1100",
      "maxspeed": "130"
    },
    {
      "from_node": "14",
      "to_node": "8",
      "distance": 45.9,
      "capacity": "1100",
      "maxspeed": "130"
    },
    {
      "from_node": "9",
      "to_node": "15",
      "distance": 20.6,
      "capacity": "1100",
      "maxspeed": "130"
    },
    {
      "from_node": "14",
      "to_node": "15",
      "distance": 53.9,
      "capacity": "1100",
      "maxspeed": "130"
    },
    {
      "from_node": "10",
      "to_node": "9",
      "distance": 23.6,
      "capacity": "1100",
      "maxspeed": "130"
    },
    {
      "from_node": "11",
      "to_node": "9",
      "distance": 68.3,
      "capacity": "1100",
      "maxspeed": "130"
    },
    {
      "from_node": "12",
      "to_node": "11",
      "distance": 122.0,
      "capacity": "1100",
      "maxspeed": "130"
    },
    {
      "from_node": "20",
      "to_node": "11",
      "distance": 31.7,
      "capacity": "1100",
      "maxspeed": "130"
    },
    {
      "from_node": "19",
      "to_node": "20",
      "distance": 49.8,
      "capacity": "1100",
      "maxspeed": "130"
    },
    {
      "from_node": "18",
      "to_node": "19",
      "distance": 21.5,
      "capacity": "1100",
      "maxspeed": "130"
    },
    {
      "from_node": "14",
      "to_node": "18",
      "distance": 26.4,
      "capacity": "1100",
      "maxspeed": "130"
    },
    {
      "from_node": "17",
      "to_node": "18",
      "distance": 36.8,
      "capacity": "1100",
      "maxspeed": "130"
    },
    {
      "from_node": "13",
      "to_node": "17",
      "distance": 30.6,
      "capacity": "1100",
      "maxspeed": "130"
    },
    {
      "from_node": "16",
      "to_node": "13",
      "distance": 28.5,
      "capacity": "1100",
      "maxspeed": "130"
    },
    {
      "from_node": "16",
      "to_node": "17",
      "distance": 24.5,
      "capacity": "1100",
      "maxspeed": "130"
    },
    {
      "from_node": "22",
      "to_node": "16",
      "distance": 57.6,
      "capacity": "1100",
      "maxspeed": "130"
    },
    {
      "from_node": "21",
      "to_node": "22",
      "distance": 66.8,
      "capacity": "1100",
      "maxspeed": "130"
    },
    {
      "from_node": "25-c",
      "to_node": "16",
      "distance": 53.2,
      "capacity": "1100",
      "maxspeed": "130"
    },
    {
      "from_node": "24",
      "to_node": "22",
      "distance": 43.6,
      "capacity": "1100",
      "maxspeed": "130"
    },
    {
      "from_node": "23",
      "to_node": "24",
      "distance": 37.6,
      "capacity": "1100",
      "maxspeed": "130"
    },
    {
      "from_node": "25",
      "to_node": "24",
      "distance": 5.0,
      "capacity": "1100",
      "maxspeed": "130"
    },
    {
      "from_node": "25-b",
      "to_node": "25",
      "distance": 3.2,
      "capacity": "1500",
      "maxspeed": "80"
    },
    {
      "from_node": "25-c",
      "to_node": "25",
      "distance": 8.4,
      "capacity": "1500",
      "maxspeed": "90"
    },
    {
      "from_node": "25-d",
      "to_node": "25-b",
      "distance": 2.1,
      "capacity": "1500",
      "maxspeed": "110"
    },
    {
      "from_node": "26",
      "to_node": "25-d",
      "distance": 18.5,
      "capacity": "1500",
      "maxspeed": "90"
    },
    {
      "from_node": "27",
      "to_node": "26",
      "distance": 59.3,
      "capacity": "1100",
      "maxspeed": "130"
    },
    {
      "from_node": "18",
      "to_node": "27",
      "distance": 22.4,
      "capacity": "1100",
      "maxspeed": "130"
    },
    {
      "from_node": "28",
      "to_node": "27",
      "distance": 9.4,
      "capacity": "1100",
      "maxspeed": "130"
    },
    {
      "from_node": "19",
      "to_node": "28",
      "distance": 16.7,
      "capacity": "1100",
      "maxspeed": "130"
    },
    {
      "from_node": "29",
      "to_node": "28",
      "distance": 60.8,
      "capacity": "1100",
      "maxspeed": "130"
    },
    {
      "from_node": "20",
      "to_node": "29",
      "distance": 14.2,
      "capacity": "1100",
      "maxspeed": "130"
    },
    {
      "from_node": "30",
      "to_node": "25-b",
      "distance": 17.1,
      "capacity": "1100",
      "maxspeed": "130"
    },
    {
      "from_node": "31",
      "to_node": "30",
      "distance": 15.5,
      "capacity": "1100",
      "maxspeed": "130"
    },
    {
      "from_node": "26",
      "to_node": "31",
      "distance": 16.0,
      "capacity": "1100",
      "maxspeed": "130"
    },
    {
      "from_node": "32",
      "to_node": "30",
      "distance": 9.5,
      "capacity": "1100",
      "maxspeed": "130"
    },
    {
      "from_node": "33",
      "to_node": "32",
      "distance": 9.7,
      "capacity": "1100",
      "maxspeed": "130"
    },
    {
      "from_node": "34",
      "to_node": "33",
      "distance": 22.0,
      "capacity": "1100",
      "maxspeed": "130"
    },
    {
      "from_node": "34",
      "to_node": "31",
      "distance": 12.2,
      "capacity": "1100",
      "maxspeed": "130"
    },
    {
      "from_node": "35",
      "to_node": "34",
      "distance": 47.0,
      "capacity": "1100",
      "maxspeed": "130"
    },
    {
      "from_node": "27",
      "to_node": "35",
      "distance": 77.2,
      "capacity": "1100",
      "maxspeed": "130"
    },
    {
      "from_node": "37",
      "to_node": "35",
      "distance": 16.6,
      "capacity": "1100",
      "maxspeed": "130"
    },
    {
      "from_node": "36",
      "to_node": "35",
      "distance": 15.7,
      "capacity": "1100",
      "maxspeed": "130"
    },
    {
      "from_node": "37",
      "to_node": "36",
      "distance": 11.6,
      "capacity": "1100",
      "maxspeed": "130"
    },
    {
      "from_node": "39",
      "to_node": "32",
      "distance": 24.8,
      "capacity": "1100",
      "maxspeed": "130"
    },
    {
      "from_node": "40",
      "to_node": "39",
      "distance": 43.5,
      "capacity": "1100",
      "maxspeed": "130"
    },
    {
      "from_node": "33",
      "to_node": "40",
      "distance": 54.8,
      "capacity": "1100",
      "maxspeed": "130"
    },
    {
      "from_node": "41",
      "to_node": "40",
      "distance": 11.2,
      "capacity": "1100",
      "maxspeed": "130"
    },
    {
      "from_node": "42",
      "to_node": "41",
      "distance": 42.4,
      "capacity": "1100",
      "maxspeed": "130"
    },
    {
      "from_node": "36",
      "to_node": "42",
      "distance": 14.2,
      "capacity": "1100",
      "maxspeed": "130"
    },
    {
      "from_node": "43",
      "to_node": "37",
      "distance": 28.3,
      "capacity": "1100",
      "maxspeed": "130"
    },
    {
      "from_node": "43",
      "to_node": "38",
      "distance": 111.0,
      "capacity": "1100",
      "maxspeed": "130"
    },
    {
      "from_node": "38",
      "to_node": "29",
      "distance": 108.0,
      "capacity": "1100",
      "maxspeed": "130"
    },
    {
      "from_node": "38",
      "to_node": "48",
      "distance": 44.7,
      "capacity": "1100",
      "maxspeed": "130"
    },
    {
      "from_node": "43",
      "to_node": "47",
      "distance": 59.7,
      "capacity": "1100",
      "maxspeed": "130"
    },
    {
      "from_node": "47",
      "to_node": "46",
      "distance": 63.9,
      "capacity": "1100",
      "maxspeed": "130"
    },
    {
      "from_node": "46",
      "to_node": "45",
      "distance": 27.9,
      "capacity": "1100",
      "maxspeed": "130"
    },
    {
      "from_node": "45",
      "to_node": "44",
      "distance": 90.9,
      "capacity": "1100",
      "maxspeed": "130"
    },
    {
      "from_node": "45",
      "to_node": "41",
      "distance": 55.0,
      "capacity": "1100",
      "maxspeed": "130"
    },
    {
      "from_node": "45",
      "to_node": "57",
      "distance": 51.2,
      "capacity": "1100",
      "maxspeed": "130"
    },
    {
      "from_node": "48",
      "to_node": "50",
      "distance": 19.7,
      "capacity": "1100",
      "maxspeed": "130"
    },
    {
      "from_node": "48",
      "to_node": "49",
      "distance": 13.6,
      "capacity": "1100",
      "maxspeed": "130"
    },
    {
      "from_node": "49",
      "to_node": "51",
      "distance": 19.6,
      "capacity": "1100",
      "maxspeed": "130"
    },
    {
      "from_node": "49",
      "to_node": "50",
      "distance": 16.0,
      "capacity": "1100",
      "maxspeed": "130"
    },
    {
      "from_node": "50",
      "to_node": "52",
      "distance": 63.7,
      "capacity": "1100",
      "maxspeed": "130"
    },
    {
      "from_node": "52",
      "to_node": "53",
      "distance": 14.7,
      "capacity": "1100",
      "maxspeed": "130"
    },
    {
      "from_node": "53",
      "to_node": "54",
      "distance": 57.5,
      "capacity": "1100",
      "maxspeed": "90"
    },
    {
      "from_node": "53",
      "to_node": "55",
      "distance": 62.9,
      "capacity": "1100",
      "maxspeed": "130"
    },
    {
      "from_node": "52",
      "to_node": "56",
      "distance": 88.6,
      "capacity": "1100",
      "maxspeed": "130"
    },
    {
      "from_node": "56",
      "to_node": "47",
      "distance": 26.5,
      "capacity": "1100",
      "maxspeed": "130"
    },
    {
      "from_node": "56",
      "to_node": "64",
      "distance": 17.7,
      "capacity": "1100",
      "maxspeed": "130"
    },
    {
      "from_node": "64",
      "to_node": "65",
      "distance": 42.0,
      "capacity": "1100",
      "maxspeed": "130"
    },
    {
      "from_node": "64",
      "to_node": "63",
      "distance": 46.0,
      "capacity": "1100",
      "maxspeed": "130"
    },
    {
      "from_node": "63",
      "to_node": "69",
      "distance": 64.4,
      "capacity": "1100",
      "maxspeed": "90"
    },
    {
      "from_node": "63",
      "to_node": "62",
      "distance": 30.0,
      "capacity": "1100",
      "maxspeed": "130"
    },
    {
      "from_node": "62",
      "to_node": "61",
      "distance": 21.4,
      "capacity": "1100",
      "maxspeed": "130"
    },
    {
      "from_node": "61",
      "to_node": "57",
      "distance": 62.1,
      "capacity": "1100",
      "maxspeed": "130"
    },
    {
      "from_node": "57",
      "to_node": "60",
      "distance": 37.5,
      "capacity": "1100",
      "maxspeed": "130"
    },
    {
      "from_node": "57",
      "to_node": "59",
      "distance": 112.0,
      "capacity": "1100",
      "maxspeed": "130"
    },
    {
      "from_node": "60",
      "to_node": "62",
      "distance": 47.4,
      "capacity": "1100",
      "maxspeed": "130"
    },
    {
      "from_node": "60",
      "to_node": "70",
      "distance": 10.0,
      "capacity": "1100",
      "maxspeed": "130"
    },
    {
      "from_node": "70",
      "to_node": "72",
      "distance": 32.5,
      "capacity": "1100",
      "maxspeed": "130"
    },
    {
      "from_node": "72",
      "to_node": "71",
      "distance": 4.7,
      "capacity": "1100",
      "maxspeed": "130"
    },
    {
      "from_node": "72",
      "to_node": "75",
      "distance": 44.6,
      "capacity": "1100",
      "maxspeed": "130"
    },
    {
      "from_node": "71",
      "to_node": "70",
      "distance": 27.8,
      "capacity": "1100",
      "maxspeed": "130"
    },
    {
      "from_node": "59",
      "to_node": "71",
      "distance": 21.6,
      "capacity": "1100",
      "maxspeed": "130"
    },
    {
      "from_node": "59",
      "to_node": "73",
      "distance": 15.2,
      "capacity": "1100",
      "maxspeed": "130"
    },
    {
      "from_node": "73",
      "to_node": "58",
      "distance": 41.3,
      "capacity": "1100",
      "maxspeed": "130"
    },
    {
      "from_node": "74",
      "to_node": "73",
      "distance": 26.5,
      "capacity": "1100",
      "maxspeed": "130"
    },
    {
      "from_node": "75",
      "to_node": "74",
      "distance": 28.2,
      "capacity": "1100",
      "maxspeed": "130"
    },
    {
      "from_node": "77",
      "to_node": "75",
      "distance": 37.7,
      "capacity": "1100",
      "maxspeed": "130"
    },
    {
      "from_node": "76",
      "to_node": "77",
      "distance": 24.5,
      "capacity": "1100",
      "maxspeed": "130"
    },
    {
      "from_node": "78",
      "to_node": "77",
      "distance": 11.3,
      "capacity": "1100",
      "maxspeed": "130"
    },
    {
      "from_node": "79",
      "to_node": "78",
      "distance": 17.6,
      "capacity": "1100",
      "maxspeed": "130"
    },
    {
      "from_node": "80",
      "to_node": "78",
      "distance": 58.7,
      "capacity": "1100",
      "maxspeed": "130"
    },
    {
      "from_node": "68",
      "to_node": "65",
      "distance": 29.0,
      "capacity": "1100",
      "maxspeed": "130"
    },
    {
      "from_node": "65",
      "to_node": "66",
      "distance": 113.0,
      "capacity": "1100",
      "maxspeed": "130"
    },
    {
      "from_node": "66",
      "to_node": "67",
      "distance": 57.3,
      "capacity": "1100",
      "maxspeed": "130"
    }
  ]
}